[{"OBJECT_NAME":"SALSAT","OBJECT_ID":"2020-068K","EPOCH":"2026-03-09T22:26:21.804576","MEAN_MOTION":15.28191989,"ECCENTRICITY":0.00082652,"INCLINATION":97.8859,"RA_OF_ASC_NODE":66.0795,"ARG_OF_PERICENTER":295.8051,"MEAN_ANOMALY":64.2334,"EPHEMERIS_TYPE":0,"CLASSIFICATION_TYPE":"U","NORAD_CAT_ID":46495,"ELEMENT_SET_NO":999,"REV_AT_EPOCH":30019,"BSTAR":0.00040842582,"MEAN_MOTION_DOT":0.00011156,"MEAN_MOTION_DDOT":0},{"OBJECT_NAME":"STARLINK-31573","OBJECT_ID":"2024-057Q","EPOCH":"2026-03-09T08:39:12.852288","MEAN_MOTION":15.27550253,"ECCENTRICITY":0.00014389,"INCLINATION":43.0023,"RA_OF_ASC_NODE":188.5038,"ARG_OF_PERICENTER":261.047,"MEAN_ANOMALY":99.0218,"EPHEMERIS_TYPE":0,"CLASSIFICATION_TYPE":"U","NORAD_CAT_ID":59334,"ELEMENT_SET_NO":999,"REV_AT_EPOCH":10979,"BSTAR":0.00010866706,"MEAN_MOTION_DOT":2.727e-5,"MEAN_MOTION_DDOT":0}]
